{
    "links": {
        "self": "http://www.neowsapp.com/rest/v1/neo/3730570?api_key=iIulBulltgU6a56xZRHN4H3l9WmuAYTsLGpBGhQ2"
    },
    "id": "3730570",
    "neo_reference_id": "3730570",
    "name": "(2015 TR237)",
    "designation": "2015 TR237",
    "nasa_jpl_url": "http://ssd.jpl.nasa.gov/sbdb.cgi?sstr=3730570",
    "absolute_magnitude_h": 20.4,
    "estimated_diameter": {
        "kilometers": {
            "estimated_diameter_min": 0.2210828104,
            "estimated_diameter_max": 0.4943561926
        },
        "meters": {
            "estimated_diameter_min": 221.0828103591,
            "estimated_diameter_max": 494.3561926196
        },
        "miles": {
            "estimated_diameter_min": 0.137374447,
            "estimated_diameter_max": 0.3071786018
        },
        "feet": {
            "estimated_diameter_min": 725.3373275385,
            "estimated_diameter_max": 1621.9035709942
        }
    },
    "is_potentially_hazardous_asteroid": false,
    "close_approach_data": [
        {
            "close_approach_date": "2015-09-01",
            "close_approach_date_full": "2015-Sep-01 21:07",
            "epoch_date_close_approach": 1441141620000,
            "relative_velocity": {
                "kilometers_per_second": "3.9158986891",
                "kilometers_per_hour": "14097.2352808664",
                "miles_per_hour": "8759.4737777139"
            },
            "miss_distance": {
                "astronomical": "0.4812336677",
                "lunar": "187.1998967353",
                "kilometers": "71991531.660207799",
                "miles": "44733463.4553896662"
            },
            "orbiting_body": "Earth"
        }
    ],
    "orbital_data": {
        "orbit_id": "9",
        "orbit_determination_date": "2017-04-06 08:31:18",
        "first_observation_date": "2015-10-12",
        "last_observation_date": "2015-11-10",
        "data_arc_in_days": 29,
        "observations_used": 40,
        "orbit_uncertainty": "6",
        "minimum_orbit_intersection": ".376435",
        "jupiter_tisserand_invariant": "3.393",
        "epoch_osculation": "2459000.5",
        "eccentricity": ".4470502638785681",
        "semi_major_axis": "2.341614776058146",
        "inclination": "12.60888604777405",
        "ascending_node_longitude": "215.5719773507067",
        "orbital_period": "1308.794923326064",
        "perihelion_distance": "1.294795272519398",
        "perihelion_argument": "92.48931657757903",
        "aphelion_distance": "3.388434279596894",
        "perihelion_time": "2458522.221190933742",
        "mean_anomaly": "131.5564174303854",
        "mean_motion": ".275062191626726",
        "equinox": "J2000",
        "orbit_class": {
            "orbit_class_type": "AMO",
            "orbit_class_description": "Near-Earth asteroid orbits similar to that of 1221 Amor",
            "orbit_class_range": "1.017 AU < q (perihelion) < 1.3 AU"
        }
    },
    "is_sentry_object": false
}